ONEWEB-0620             
1 55161U 23004X   24130.67711431 -.00000382  00000+0 -11124-2 0  9992
2 55161  87.8986 173.9845 0002343  84.2819 275.8576 13.11413890 65100
ONEWEB-0621             
1 55162U 23004Y   24130.62685436 -.00006696  00000+0 -18957-1 0  9997
2 55162  87.8983 173.9644 0001902  90.3191 269.8155 13.11366956 65078
ONEWEB-0622             
1 55163U 23004Z   24130.63327005  .00001647  00000+0  46082-2 0  9994
2 55163  87.8986 173.9790 0002137  69.2306 290.9051 13.11433692 65069
ONEWEB-0623             
1 55164U 23004AA  24130.62037583  .00000026  00000+0  32606-4 0  9992
2 55164  87.9180 158.8548 0001867  68.1250 292.0080 13.17648274 66375
ONEWEB-0624             
1 55165U 23004AB  24130.95417991  .00000414  00000+0  11163-2 0  9998
2 55165  87.8939 143.5930 0001849  83.8277 276.3062 13.12443037 67287
ONEWEB-0625             
1 55166U 23004AC  24130.60931813  .00000015  00000+0  48217-5 0  9995
2 55166  87.9179 158.8557 0001829 100.6240 259.5098 13.17651844 66367
ONEWEB-0626             
1 55167U 23004AD  24130.59983004 -.00000046  00000+0 -15053-3 0  9999
2 55167  87.9180 158.8587 0002608  89.3598 270.7832 13.17648256 66362
ONEWEB-0627             
1 55168U 23004AE  24130.58873285 -.00000024  00000+0 -95058-4 0  9998
2 55168  87.9180 158.8620 0002146  71.1272 289.0092 13.17648655 66360
